 Automated mail xmit by PORT_LOGIN, PID= 22072 Fri Apr 24 12:11:09 2020
++++++++++++++++++++++++++++++++ (part 1 of 1)  +++++++++++++++++++++++++++++++
*******************************************************************************
Ephemeris / PORT_LOGIN Fri Apr 24 12:10:54 2020 Pasadena, USA    / Horizons   
*******************************************************************************
Target body name: Earth (399)                     {source: DE431mx}
Center body name: Sun (10)                        {source: DE431mx}
Center-site name: BODY CENTER
*******************************************************************************
Start time      : A.D. 2010-Jan-01 00:00:00.0000 TDB
Stop  time      : A.D. 2020-Jan-01 00:00:00.0000 TDB
Step-size       : 1440 minutes
*******************************************************************************
Center geodetic : 0.00000000,0.00000000,0.0000000 {E-lon(deg),Lat(deg),Alt(km)}
Center cylindric: 0.00000000,0.00000000,0.0000000 {E-lon(deg),Dxy(km),Dz(km)}
Center radii    : 696000.0 x 696000.0 x 696000.0 k{Equator, meridian, pole}   
Output units    : AU-D                                                         
Output type     : GEOMETRIC cartesian states
Output format   : 3 (position, velocity, LT, range, range-rate)
Reference frame : ICRF/J2000.0                                                 
Coordinate systm: Ecliptic and Mean Equinox of Reference Epoch                 
*******************************************************************************
            JDTDB,            Calendar Date (TDB),                      X,                      Y,                      Z,                     VX,                     VY,                     VZ,                     LT,                     RG,                     RR,
**************************************************************************************************************************************************************************************************************************************************************************
$$SOE
2458184.500000000, A.D. 2018-Mar-07 00:00:00.0000, -9.632263503650806E-01,  2.381746259997326E-01, -9.032383439471290E-06, -4.413823630638508E-03, -1.676086374438633E-02,  7.355301674343995E-07,  5.730676843006863E-03,  9.922359369571984E-01,  2.615292964449366E-04,
2458185.500000000, A.D. 2018-Mar-08 00:00:00.0000, -9.674945830593609E-01,  2.213779237419694E-01, -8.224802842930340E-06, -4.122415721627711E-03, -1.683171181408072E-02,  8.781363723056056E-07,  5.732195261911662E-03,  9.924988430407157E-01,  2.642274698711488E-04,
2458186.500000000, A.D. 2018-Mar-09 00:00:00.0000, -9.714707427209739E-01,  2.045128733855267E-01, -7.279961305959080E-06, -3.829690918201490E-03, -1.689754707850862E-02,  1.009226981419107E-06,  5.733728308850636E-03,  9.927642818898366E-01,  2.665957790634902E-04,
2458187.500000000, A.D. 2018-Mar-10 00:00:00.0000, -9.751535541417076E-01,  1.875845251644969E-01, -6.211683493121716E-06, -3.535734092421311E-03, -1.695829581458602E-02,  1.124340043091787E-06,  5.735274098770149E-03,  9.930319271176425E-01,  2.686417067543128E-04,
2458188.500000000, A.D. 2018-Mar-11 00:00:00.0000, -9.785418309366271E-01,  1.705979998288370E-01, -5.037835348374988E-06, -3.240637532698161E-03, -1.701389048154578E-02,  1.219808825807801E-06,  5.736830796762181E-03,  9.933014610196574E-01,  2.703748092436392E-04,
2458189.500000000, A.D. 2018-Mar-12 00:00:00.0000, -9.816344818101933E-01,  1.535584832868959E-01, -3.779655280801049E-06, -2.944498949057157E-03, -1.706426797414233E-02,  1.292522829430376E-06,  5.738396626019585E-03,  9.935725759512609E-01,  2.718055964800407E-04,
2458190.500000000, A.D. 2018-Mar-13 00:00:00.0000, -9.844305157212452E-01,  1.364712231406044E-01, -2.461275136443116E-06, -2.647421234865924E-03, -1.710936772251694E-02,  1.339794001902347E-06,  5.739969873758793E-03,  9.938449753531721E-01,  2.729458967402589E-04,
2458191.500000000, A.D. 2018-Mar-14 00:00:00.0000, -9.869290475797716E-01,  1.193415268829914E-01, -1.109309484776016E-06, -2.349513708612190E-03, -1.714913037690142E-02,  1.359356841183778E-06,  5.741548902741846E-03,  9.941183757464246E-01,  2.738103710325386E-04,
2458192.500000000, A.D. 2018-Mar-15 00:00:00.0000, -9.891293057483562E-01,  1.021747608678725E-01,  2.476262655277472E-07, -2.050894393347951E-03, -1.718349766558808E-02,  1.349510280913410E-06,  5.743132173937241E-03,  9.943925106559751E-01,  2.744187833378902E-04,
2458193.500000000, A.D. 2018-Mar-16 00:00:00.0000, -9.910306420883013E-01,  8.497634864419930E-02,  1.579605716348609E-06, -1.751692704261158E-03, -1.721241386447811E-02,  1.309387183552820E-06,  5.744718283309879E-03,  9.946671369806818E-01,  2.747985288698756E-04,
2458194.500000000, A.D. 2018-Mar-17 00:00:00.0000, -9.926325445576739E-01,  6.775176692099888E-02,  2.856397998156854E-06, -1.452051711319535E-03, -1.723582906945984E-02,  1.239308204030681E-06,  5.746306012461374E-03,  9.949420437614036E-01,  2.749867859014540E-04,
2458195.500000000, A.D. 2018-Mar-18 00:00:00.0000, -9.939346514629747E-01,  5.050653742672839E-02,  4.048839778952216E-06, -1.152129025884820E-03, -1.725370405803261E-02,  1.141143592134405E-06,  5.747894388886086E-03,  9.952170626140087E-01,  2.750315754513476E-04,
2458196.500000000, A.D. 2018-Mar-19 00:00:00.0000, -9.949367655491633E-01,  3.324621339429084E-02,  5.130531518993085E-06, -8.520954793572636E-04, -1.726601601260706E-02,  1.018582255153774E-06,  5.749482747644941E-03,  9.954920784078655E-01,  2.749911109389178E-04,
2458197.500000000, A.D. 2018-Mar-20 00:00:00.0000, -9.956388654778335E-01,  1.597636036447459E-02,  6.079714492023837E-06, -5.521312103174683E-04, -1.727276394496994E-02,  8.772100558315168E-07,  5.751070783579183E-03,  9.957670383063733E-01,  2.749311689999913E-04,
2458198.500000000, A.D. 2018-Mar-21 00:00:00.0000, -9.960411121928916E-01, -1.297467751734590E-03,  6.881103703024443E-06, -2.524194626738732E-04, -1.727397255968413E-02,  7.243384681860332E-07,  5.752658583111000E-03,  9.960419572730702E-01,  2.749207376919068E-04,
2458199.500000000, A.D. 2018-Mar-22 00:00:00.0000, -9.961438483109258E-01, -1.856975529016506E-02,  7.527424034387196E-06,  4.686097105478728E-05, -1.726969364855185E-02,  5.685888350089987E-07,  5.754246627606123E-03,  9.963169186538485E-01,  2.750266668138685E-04,
2458200.500000000, A.D. 2018-Mar-23 00:00:00.0000, -9.959475897754883E-01, -3.583505147791421E-02,  8.020433284949726E-06,  3.455434725904418E-04, -1.726000476733894E-02,  4.192957519483643E-07,  5.755835765110388E-03,  9.965920692832934E-01,  2.753082053099031E-04,
2458201.500000000, A.D. 2018-Mar-24 00:00:00.0000, -9.954530101270510E-01, -5.308799452405329E-02,  8.371294358779305E-06,  6.434805199811245E-04, -1.724500554134177E-02,  2.858159225616490E-07,  5.757427151910808E-03,  9.968676093662945E-01,  2.758120927814305E-04,
2458202.500000000, A.D. 2018-Mar-25 00:00:00.0000, -9.946609184774982E-01, -7.032333106628114E-02,  8.600239156793279E-06,  9.405493101166795E-04, -1.722481215814535E-02,  1.768113545954049E-07,  5.759022168073462E-03,  9.971437778538870E-01,  2.765684697866679E-04,
2458203.500000000, A.D. 2018-Mar-26 00:00:00.0000, -9.935722325907818E-01, -8.753592937131761E-02,  8.735518975336154E-06,  1.236655899128361E-03, -1.719955041664186E-02,  9.954313950959108E-08,  5.760622311750428E-03,  9.974208341430613E-01,  2.775876132099132E-04,
2458204.500000000, A.D. 2018-Mar-27 00:00:00.0000, -9.921879486658052E-01, -1.047207849062069E-01,  8.811663834969170E-06,  1.531737580961030E-03, -1.716934742437076E-02,  5.920100063722371E-08,  5.762229077207256E-03,  9.976990369578773E-01,  2.788576118399378E-04,
2458205.500000000, A.D. 2018-Mar-28 00:00:00.0000, -9.905091098925667E-01, -1.218730169783321E-01,  8.867110276194858E-06,  1.825762810163390E-03, -1.713432209857837E-02,  5.832451987934153E-08,  5.763843823304419E-03,  9.979786215777328E-01,  2.803435129073452E-04,
2458206.500000000, A.D. 2018-Mar-29 00:00:00.0000, -9.885367767226664E-01, -1.389878555630242E-01,  8.941340794993303E-06,  2.118727692959081E-03, -1.709457524562352E-02,  9.642818397516271E-08,  5.765467643425361E-03,  9.982597773161024E-01,  2.819888350286692E-04,
2458207.500000000, A.D. 2018-Mar-30 00:00:00.0000, -9.862720026513412E-01, -1.560606186714117E-01,  9.071810347122177E-06,  2.410648453137094E-03, -1.705018091263661E-02,  1.699732677349021E-07,  5.767101252917879E-03,  9.985426280316173E-01,  2.837201915176323E-04,
2458208.500000000, A.D. 2018-Mar-31 00:00:00.0000, -9.837158193556699E-01, -1.730866826329093E-01,  9.291062298012311E-06,  2.701550486198505E-03, -1.700118122751527E-02,  2.727816424224745E-07,  5.768744912192925E-03,  9.988272188130369E-01,  2.854548881069693E-04,
2458209.500000000, A.D. 2018-Apr-01 00:00:00.0000, -9.808692336567669E-01, -1.900614497131697E-01,  9.624470308919777E-06,  2.991456111768188E-03, -1.694758639834614E-02,  3.968540271002731E-07,  5.770398399213671E-03,  9.991135112158755E-01,  2.871100998437788E-04,
2458210.500000000, A.D. 2018-Apr-02 00:00:00.0000, -9.777332361663210E-01, -2.069803184208669E-01,  1.008892687216760E-05,  3.280373935851673E-03, -1.688937994099081E-02,  5.334037002066904E-07,  5.772061034208870E-03,  9.994013875413905E-01,  2.886113857340417E-04,
2458211.500000000, A.D. 2018-Apr-03 00:00:00.0000, -9.743088187193240E-01, -2.238386609924248E-01,  1.069256302968035E-05,  3.568292200151617E-03, -1.682652740128455E-02,  6.738413372142442E-07,  5.773731746497184E-03,  9.996906624068551E-01,  2.898984879864005E-04,
2458212.500000000, A.D. 2018-Apr-04 00:00:00.0000, -9.705969960529767E-01, -2.406318102342683E-01,  1.143533279708757E-05,  3.855176923981022E-03, -1.675898589062901E-02,  8.104925148430909E-07,  5.775409164371748E-03,  9.999810983085879E-01,  2.909274791735725E-04,
